NORAD_CAT_ID,OBJECT_NAME,OBJECT_TYPE,EPOCH,MEAN_MOTION,ECCENTRICITY,INCLINATION,RA_OF_ASC_NODE,ARG_OF_PERICENTER,MEAN_ANOMALY,BSTAR,MEAN_MOTION_DOT,MEAN_MOTION_DDOT,TLE_LINE0,TLE_LINE1,TLE_LINE2,SEMIMAJOR_AXIS,PERIOD,APOGEE,PERIGEE,DECAYED
55932.0,STARLINK-5848,PAYLOAD,2023-09-27 06:00:02,15.19748735,0.0003141,70.0017,359.9304,272.0693,232.5598,-0.045631,-0.00907442,0.0,0 STARLINK-5848,1 55932U 23037U   23270.25002315 -.00907442  00000-0 -45631-1 0  9999,2 55932  70.0017 359.9304 0003141 272.0693 232.5598 15.19748735 30829,6884.736,94.753,508.764,504.439,0.0
55932.0,STARLINK-5848,PAYLOAD,2023-09-27 14:00:01,15.19087004,0.0003241,70.0015,359.0623,278.4059,248.9451,-0.04636,-0.00904591,0.0,0 STARLINK-5848,1 55932U 23037U   23270.58334491 -.00904591  00000-0 -46360-1 0  9990,2 55932  70.0015 359.0623 0003241 278.4059 248.9451 15.19087004  6028,6886.736,94.794,510.833,506.369,0.0
55932.0,STARLINK-5848,PAYLOAD,2023-09-27 22:00:00,15.18461596,0.0003198,70.0013,358.1949,276.657,272.6779,-0.05013,-0.00956403,0.0,0 STARLINK-5848,1 55932U 23037U   23270.91667824 -.00956403  00000-0 -50130-1 0  9995,2 55932  70.0013 358.1949 0003198 276.6570 272.6779 15.18461596 30931,6888.626,94.833,512.694,508.288,0.0
55932.0,STARLINK-5848,PAYLOAD,2023-09-28 14:00:01,15.1712845,0.0003261,70.0014,356.4629,278.2026,312.8422,-0.048843,-0.00900905,0.0,0 STARLINK-5848,1 55932U 23037U   23271.58335648 -.00900905  00000-0 -48843-1 0  9999,2 55932  70.0014 356.4629 0003261 278.2026 312.8422 15.17128450 31035,6892.661,94.916,516.774,512.279,0.0
55932.0,STARLINK-5848,PAYLOAD,2023-09-28 16:00:30,15.16964712,0.0003421,70.0013,356.2457,279.0888,48.7717,-0.04875,-0.00895416,0.0,0 STARLINK-5848,1 55932U 23037U   23271.66702546 -.00895416  00000-0 -48750-1 0  9990,2 55932  70.0013 356.2457 0003421 279.0888  48.7717 15.16964712  6025,6893.157,94.926,517.38,512.664,0.0
55932.0,STARLINK-5848,PAYLOAD,2023-09-28 22:00:01,15.16502665,0.0003229,70.0012,355.5981,276.4687,334.2145,-0.052941,-0.00954778,0.0,0 STARLINK-5848,1 55932U 23037U   23271.91668981 -.00954778  00000-0 -52941-1 0  9996,2 55932  70.0012 355.5981 0003229 276.4687 334.2145 15.16502665  6014,6894.557,94.955,518.649,514.196,0.0
55932.0,STARLINK-5848,PAYLOAD,2023-09-29 06:00:00,15.15841184,0.0003271,70.0014,354.7345,271.9881,357.4901,-0.051606,-0.00916253,0.0,0 STARLINK-5848,1 55932U 23037U   23272.25001157 -.00916253  00000-0 -51606-1 0  9993,2 55932  70.0014 354.7345 0003271 271.9881 357.4901 15.15841184 31133,6896.563,94.997,520.684,516.172,0.0
55932.0,STARLINK-5848,PAYLOAD,2023-09-29 14:00:01,15.15171378,0.0003313,70.0011,353.8714,278.9029,8.669,-0.051606,-0.00900175,0.0,0 STARLINK-5848,1 55932U 23037U   23272.58334491 -.00900175  00000-0 -51606-1 0  9995,2 55932  70.0011 353.8714 0003313 278.9029   8.6690 15.15171378  6018,6898.595,95.039,522.746,518.175,0.0
55932.0,STARLINK-5848,PAYLOAD,2023-09-29 22:00:00,15.14542835,0.0003293,70.0008,353.0093,277.4582,27.4063,-0.055746,-0.00951099,0.0,0 STARLINK-5848,1 55932U 23037U   23272.91667824 -.00951099  00000-0 -55746-1 0  9991,2 55932  70.0008 353.0093 0003293 277.4582  27.4063 15.14542835 31235,6900.504,95.078,524.641,520.096,0.0
55932.0,STARLINK-5848,PAYLOAD,2023-09-30 06:00:00,15.13887828,0.0003338,70.001,352.1481,273.0593,48.3143,-0.054954,-0.00922616,0.0,0 STARLINK-5848,1 55932U 23037U   23273.25001157 -.00922616  00000-0 -54954-1 0  9993,2 55932  70.0010 352.1481 0003338 273.0593  48.3143 15.13887828  5957,6902.494,95.119,526.663,522.055,0.0
55932.0,STARLINK-5848,PAYLOAD,2023-09-30 14:00:01,15.1320882,0.0003317,70.0007,351.2877,277.7389,59.3828,-0.053824,-0.00889048,0.0,0 STARLINK-5848,1 55932U 23037U   23273.58334491 -.00889048  00000-0 -53824-1 0  9995,2 55932  70.0007 351.2877 0003317 277.7389  59.3828 15.13208820 31335,6904.559,95.162,528.714,524.134,0.0
55932.0,STARLINK-5848,PAYLOAD,2023-10-01 06:00:00,15.11933499,0.0003326,70.0005,349.5694,271.6525,94.576,-0.058305,-0.00926331,0.0,0 STARLINK-5848,1 55932U 23037U   23274.25001157 -.00926331  00000-0 -58305-1 0  9996,2 55932  70.0005 349.5694 0003326 271.6525  94.5760 15.11933499 31437,6908.441,95.242,532.604,528.008,0.0
55932.0,STARLINK-5848,PAYLOAD,2023-10-01 14:00:01,15.11258133,0.0003358,70.0002,348.7113,278.1097,101.5199,-0.057592,-0.00899966,0.0,0 STARLINK-5848,1 55932U 23037U   23274.58334491 -.00899966  00000-0 -57592-1 0  9992,2 55932  70.0002 348.7113 0003358 278.1097 101.5199 15.11258133  5950,6910.499,95.285,534.685,530.043,0.0
55932.0,STARLINK-5848,PAYLOAD,2023-10-01 22:00:00,15.10622376,0.0003297,69.9999,347.8543,276.0837,116.1471,-0.061404,-0.00939555,0.0,0 STARLINK-5848,1 55932U 23037U   23274.91667824 -.00939555  00000-0 -61404-1 0  9994,2 55932  69.9999 347.8543 0003297 276.0837 116.1471 15.10622376  6016,6912.438,95.325,536.582,532.024,0.0
55932.0,STARLINK-5848,PAYLOAD,2023-10-02 06:00:00,15.09978808,0.0003338,70.0,346.9981,273.5397,130.5037,-0.061876,-0.00930768,0.0,0 STARLINK-5848,1 55932U 23037U   23275.25001157 -.00930768  00000-0 -61876-1 0  9993,2 55932  70.0000 346.9981 0003338 273.5397 130.5037 15.09978808 31587,6914.402,95.366,538.575,533.959,0.0
55932.0,STARLINK-5848,PAYLOAD,2023-10-02 22:00:00,15.08661945,0.0003221,69.9995,345.2881,277.1057,148.2482,-0.064362,-0.00933452,0.0,0 STARLINK-5848,1 55932U 23037U   23275.91667824 -.00933452  00000-0 -64362-1 0  9991,2 55932  69.9995 345.2881 0003221 277.1057 148.2482 15.08661945  6045,6918.425,95.449,542.518,538.061,0.0
55932.0,STARLINK-5848,PAYLOAD,2023-10-03 14:00:01,15.07341327,0.0003323,69.9995,343.5814,280.6507,162.8758,-0.063707,-0.0089421,0.0,0 STARLINK-5848,1 55932U 23037U   23276.58334491 -.00894210  00000-0 -63707-1 0  9996,2 55932  69.9995 343.5814 0003323 280.6507 162.8758 15.07341327  5825,6922.465,95.532,546.63,542.03,0.0
55932.0,STARLINK-5848,PAYLOAD,2023-10-03 22:00:00,15.06701102,0.0003207,69.9993,342.7294,277.3396,174.0954,-0.067278,-0.00925517,0.0,0 STARLINK-5848,1 55932U 23037U   23276.91667824 -.00925517  00000-0 -67278-1 0  9994,2 55932  69.9993 342.7294 0003207 277.3396 174.0954 15.06701102  5874,6924.426,95.573,548.512,544.07,0.0
55932.0,STARLINK-5848,PAYLOAD,2023-10-04 06:00:00,15.0606855,0.0003228,69.9995,341.8782,275.1228,183.4287,-0.069402,-0.00937534,0.0,0 STARLINK-5848,1 55932U 23037U   23277.25001157 -.00937534  00000-0 -69402-1 0  9996,2 55932  69.9995 341.8782 0003228 275.1228 183.4287 15.06068550 31887,6926.365,95.613,550.465,545.994,0.0
55932.0,STARLINK-5848,PAYLOAD,2023-10-04 14:00:01,15.05382385,0.0003282,69.9994,341.0278,280.7912,184.1235,-0.066899,-0.00890719,0.0,0 STARLINK-5848,1 55932U 23037U   23277.58334491 -.00890719  00000-0 -66899-1 0  9992,2 55932  69.9994 341.0278 0003282 280.7912 184.1235 15.05382385  5976,6928.469,95.657,552.608,548.06,0.0
55932.0,STARLINK-5848,PAYLOAD,2023-10-04 22:00:01,15.04740356,0.0003169,69.9992,340.1783,276.8793,193.6595,-0.07033,-0.00918157,0.0,0 STARLINK-5848,1 55932U 23037U   23277.91668981 -.00918157  00000-0 -70330-1 0  9995,2 55932  69.9992 340.1783 0003169 276.8793 193.6595 15.04740356  5971,6930.44,95.698,554.501,550.109,0.0
55932.0,STARLINK-5848,PAYLOAD,2023-10-05 14:00:01,15.0342282,0.0003222,69.9993,338.4819,280.3646,198.8979,-0.070197,-0.00887034,0.0,0 STARLINK-5848,1 55932U 23037U   23278.58334491 -.00887034  00000-0 -70197-1 0  9995,2 55932  69.9993 338.4819 0003222 280.3646 198.8979 15.03422820 32086,6934.488,95.781,558.588,554.119,0.0
55932.0,STARLINK-5848,PAYLOAD,2023-10-05 22:00:00,15.02778569,0.0003103,69.9994,337.6359,275.8014,206.6758,-0.07341,-0.00910007,0.0,0 STARLINK-5848,1 55932U 23037U   23278.91667824 -.00910007  00000-0 -73410-1 0  9999,2 55932  69.9994 337.6359 0003103 275.8014 206.6758 15.02778569  6136,6936.47,95.823,560.487,556.183,0.0
55932.0,STARLINK-5848,PAYLOAD,2023-10-06 06:00:00,15.02157215,0.0003148,69.9995,336.7892,274.4033,210.4946,-0.077504,-0.00953239,0.0,0 STARLINK-5848,1 55932U 23037U   23279.25001157 -.00953239  00000-0 -77504-1 0  9990,2 55932  69.9995 336.7892 0003148 274.4033 210.4946 15.02157215 32189,6938.383,95.862,562.432,558.063,0.0
55932.0,STARLINK-5848,PAYLOAD,2023-10-06 14:00:01,15.01465072,0.0003209,69.9994,335.944,279.9598,206.6717,-0.073768,-0.00885069,0.0,0 STARLINK-5848,1 55932U 23037U   23279.58335648 -.00885069  00000-0 -73768-1 0  9994,2 55932  69.9994 335.9440 0003209 279.9598 206.6717 15.01465072  5907,6940.515,95.906,564.607,560.153,0.0
55932.0,STARLINK-5848,PAYLOAD,2023-10-06 22:00:01,15.00817587,0.000313,69.9993,335.0998,275.7101,211.7901,-0.07655,-0.00901578,0.0,0 STARLINK-5848,1 55932U 23037U   23279.91668981 -.00901578  00000-0 -76550-1 0  9996,2 55932  69.9993 335.0998 0003130 275.7101 211.7901 15.00817587  5950,6942.511,95.948,566.549,562.203,0.0
55932.0,STARLINK-5848,PAYLOAD,2023-10-07 14:00:01,14.99340729,0.0003294,69.9995,333.4141,278.46,208.3951,-0.0062728,-0.00076103,0.0,0 STARLINK-5848,1 55932U 23037U   23280.58334491 -.00076103  00000-0 -62728-2 0  9997,2 55932  69.9995 333.4141 0003294 278.4600 208.3951 14.99340729 32389,6947.069,96.042,571.222,566.646,0.0
55932.0,STARLINK-5848,PAYLOAD,2023-10-07 22:00:00,14.99266771,0.0003222,69.9997,332.5723,274.3536,211.1671,0.0020433,0.00024975,0.0,0 STARLINK-5848,1 55932U 23037U   23280.91667824  .00024975  00000-0  20433-2 0  9998,2 55932  69.9997 332.5723 0003222 274.3536 211.1671 14.99266771  5858,6947.298,96.047,571.401,566.924,0.0
55932.0,STARLINK-5848,PAYLOAD,2023-10-08 14:00:01,14.98774546,0.0003367,69.9998,330.8892,278.6203,204.069,-0.049893,-0.00568406,0.0,0 STARLINK-5848,1 55932U 23037U   23281.58334491 -.00568406  00000-0 -49893-1 0  9997,2 55932  69.9998 330.8892 0003367 278.6203 204.0690 14.98774546 32535,6948.819,96.078,573.023,568.344,0.0
55932.0,STARLINK-5848,PAYLOAD,2023-10-08 22:00:00,14.98306946,0.0003338,70.0001,330.0484,274.5448,205.9192,0.0025221,0.00030112,0.0,0 STARLINK-5848,1 55932U 23037U   23281.91667824  .00030112  00000-0  25221-2 0  9999,2 55932  70.0001 330.0484 0003338 274.5448 205.9192 14.98306946 32583,6950.264,96.108,574.449,569.809,0.0
